{
  "type": "FeatureCollection",
  "features": [
    {
      "type": "Feature",
      "properties": {
        "norad_id": 30022,
        "name": "FENGYUN 1C DEB",
        "group": "fengyun-1c-debris",
        "lat": -23.39197647848382,
        "lon": -162.1619209036131,
        "alt_km": 799.2870666037379,
        "timestamp": "2025-12-11T18:59:46.346530+00:00",
        "meta_object_name": "FENGYUN 1C DEB",
        "meta_object_id": "1999-025MX",
        "meta_epoch": "2025-12-11T04:28:58.556640",
        "meta_mean_motion": 14.23131598,
        "meta_eccentricity": 0.00665667,
        "meta_inclination": 99.0722,
        "meta_ra_of_asc_node": 193.252,
        "meta_arg_of_pericenter": 273.6544,
        "meta_mean_anomaly": 205.6509,
        "meta_ephemeris_type": 0,
        "meta_classification_type": "U",
        "meta_norad_cat_id": 30022,
        "meta_element_set_no": 999,
        "meta_rev_at_epoch": 98170,
        "meta_bstar": 0.00011336369,
        "meta_mean_motion_dot": 2.14e-06,
        "meta_mean_motion_ddot": 0,
        "tle_line1": "1 30022U 99025MX  25345.18678885  .00000214  00000+0  11336-3 0  9995",
        "tle_line2": "2 30022  99.0722 193.2520 0066566 273.6544 205.6509 14.23131598981709"
      },
      "geometry": {
        "type": "Point",
        "coordinates": [
          -162.1619209036131,
          -23.39197647848382
        ]
      }
    },
    {
      "type": "Feature",
      "properties": {
        "norad_id": 30023,
        "name": "FENGYUN 1C DEB",
        "group": "fengyun-1c-debris",
        "lat": -55.298487417550774,
        "lon": -167.00304786941152,
        "alt_km": 878.2224208320376,
        "timestamp": "2025-12-11T18:59:46.346541+00:00",
        "meta_object_name": "FENGYUN 1C DEB",
        "meta_object_id": "1999-025MY",
        "meta_epoch": "2025-12-11T02:51:21.530016",
        "meta_mean_motion": 14.11859027,
        "meta_eccentricity": 0.00471821,
        "meta_inclination": 99.2939,
        "meta_ra_of_asc_node": 178.6221,
        "meta_arg_of_pericenter": 68.0454,
        "meta_mean_anomaly": 59.7823,
        "meta_ephemeris_type": 0,
        "meta_classification_type": "U",
        "meta_norad_cat_id": 30023,
        "meta_element_set_no": 999,
        "meta_rev_at_epoch": 97173,
        "meta_bstar": 0.00055986185,
        "meta_mean_motion_dot": 9.86e-06,
        "meta_mean_motion_ddot": 0,
        "tle_line1": "1 30023U 99025MY  25345.11899919  .00000986  00000+0  55986-3 0  9997",
        "tle_line2": "2 30023  99.2939 178.6221 0047182  68.0454  59.7823 14.11859027971736"
      },
      "geometry": {
        "type": "Point",
        "coordinates": [
          -167.00304786941152,
          -55.298487417550774
        ]
      }
    },
    {
      "type": "Feature",
      "properties": {
        "norad_id": 30028,
        "name": "FENGYUN 1C DEB",
        "group": "fengyun-1c-debris",
        "lat": 70.1222455496695,
        "lon": -45.29957235918957,
        "alt_km": 816.3345505317466,
        "timestamp": "2025-12-11T18:59:46.346552+00:00",
        "meta_object_name": "FENGYUN 1C DEB",
        "meta_object_id": "1999-025ND",
        "meta_epoch": "2025-12-10T22:59:17.255904",
        "meta_mean_motion": 14.55477475,
        "meta_eccentricity": 0.0174159,
        "meta_inclination": 98.1458,
        "meta_ra_of_asc_node": 337.2247,
        "meta_arg_of_pericenter": 233.9196,
        "meta_mean_anomaly": 153.0113,
        "meta_ephemeris_type": 0,
        "meta_classification_type": "U",
        "meta_norad_cat_id": 30028,
        "meta_element_set_no": 999,
        "meta_rev_at_epoch": 99696,
        "meta_bstar": 0.00059653,
        "meta_mean_motion_dot": 3.13e-05,
        "meta_mean_motion_ddot": 0,
        "tle_line1": "1 30028U 99025ND  25344.95783861  .00003130  00000+0  59653-3 0  9990",
        "tle_line2": "2 30028  98.1458 337.2247 0174159 233.9196 153.0113 14.55477475996960"
      },
      "geometry": {
        "type": "Point",
        "coordinates": [
          -45.29957235918957,
          70.1222455496695
        ]
      }
    },
    {
      "type": "Feature",
      "properties": {
        "norad_id": 30035,
        "name": "FENGYUN 1C DEB",
        "group": "fengyun-1c-debris",
        "lat": -54.471477261321795,
        "lon": -86.24537218115984,
        "alt_km": 816.2636139423466,
        "timestamp": "2025-12-11T18:59:46.346562+00:00",
        "meta_object_name": "FENGYUN 1C DEB",
        "meta_object_id": "1999-025NL",
        "meta_epoch": "2025-12-11T06:38:53.844576",
        "meta_mean_motion": 14.36973784,
        "meta_eccentricity": 0.01156373,
        "meta_inclination": 99.2707,
        "meta_ra_of_asc_node": 259.9773,
        "meta_arg_of_pericenter": 66.1547,
        "meta_mean_anomaly": 99.4725,
        "meta_ephemeris_type": 0,
        "meta_classification_type": "U",
        "meta_norad_cat_id": 30035,
        "meta_element_set_no": 999,
        "meta_rev_at_epoch": 99102,
        "meta_bstar": 0.0001271506,
        "meta_mean_motion_dot": 3.54e-06,
        "meta_mean_motion_ddot": 0,
        "tle_line1": "1 30035U 99025NL  25345.27701209  .00000354  00000+0  12715-3 0  9993",
        "tle_line2": "2 30035  99.2707 259.9773 0115637  66.1547  99.4725 14.36973784991020"
      },
      "geometry": {
        "type": "Point",
        "coordinates": [
          -86.24537218115984,
          -54.471477261321795
        ]
      }
    },
    {
      "type": "Feature",
      "properties": {
        "norad_id": 30036,
        "name": "FENGYUN 1C DEB",
        "group": "fengyun-1c-debris",
        "lat": 6.456263814645129,
        "lon": 11.97107143011708,
        "alt_km": 863.3930835598612,
        "timestamp": "2025-12-11T18:59:46.346572+00:00",
        "meta_object_name": "FENGYUN 1C DEB",
        "meta_object_id": "1999-025NM",
        "meta_epoch": "2025-12-10T13:47:14.539776",
        "meta_mean_motion": 14.46168527,
        "meta_eccentricity": 0.0189865,
        "meta_inclination": 98.253,
        "meta_ra_of_asc_node": 11.7267,
        "meta_arg_of_pericenter": 214.2216,
        "meta_mean_anomaly": 299.085,
        "meta_ephemeris_type": 0,
        "meta_classification_type": "U",
        "meta_norad_cat_id": 30036,
        "meta_element_set_no": 999,
        "meta_rev_at_epoch": 99145,
        "meta_bstar": 0.0006467,
        "meta_mean_motion_dot": 2.841e-05,
        "meta_mean_motion_ddot": 0,
        "tle_line1": "1 30036U 99025NM  25344.57447384  .00002841  00000+0  64670-3 0  9997",
        "tle_line2": "2 30036  98.2530  11.7267 0189865 214.2216 299.0850 14.46168527991455"
      },
      "geometry": {
        "type": "Point",
        "coordinates": [
          11.97107143011708,
          6.456263814645129
        ]
      }
    },
    {
      "type": "Feature",
      "properties": {
        "norad_id": 30037,
        "name": "FENGYUN 1C DEB",
        "group": "fengyun-1c-debris",
        "lat": 78.39964988019864,
        "lon": -84.38159511199126,
        "alt_km": 656.2789521066798,
        "timestamp": "2025-12-11T18:59:46.346583+00:00",
        "meta_object_name": "FENGYUN 1C DEB",
        "meta_object_id": "1999-025NN",
        "meta_epoch": "2025-12-09T10:22:55.253280",
        "meta_mean_motion": 14.34111274,
        "meta_eccentricity": 0.01745574,
        "meta_inclination": 98.3831,
        "meta_ra_of_asc_node": 319.2486,
        "meta_arg_of_pericenter": 64.8781,
        "meta_mean_anomaly": 84.6299,
        "meta_ephemeris_type": 0,
        "meta_classification_type": "U",
        "meta_norad_cat_id": 30037,
        "meta_element_set_no": 999,
        "meta_rev_at_epoch": 98740,
        "meta_bstar": 0.00035366107,
        "meta_mean_motion_dot": 1.128e-05,
        "meta_mean_motion_ddot": 0,
        "tle_line1": "1 30037U 99025NN  25343.43258395  .00001128  00000+0  35366-3 0  9991",
        "tle_line2": "2 30037  98.3831 319.2486 0174557  64.8781  84.6299 14.34111274987407"
      },
      "geometry": {
        "type": "Point",
        "coordinates": [
          -84.38159511199126,
          78.39964988019864
        ]
      }
    },
    {
      "type": "Feature",
      "properties": {
        "norad_id": 30038,
        "name": "FENGYUN 1C DEB",
        "group": "fengyun-1c-debris",
        "lat": 80.77110979715961,
        "lon": -141.61230251028837,
        "alt_km": 572.8389940862908,
        "timestamp": "2025-12-11T18:59:46.346594+00:00",
        "meta_object_name": "FENGYUN 1C DEB",
        "meta_object_id": "1999-025NP",
        "meta_epoch": "2025-12-11T05:31:34.157280",
        "meta_mean_motion": 14.39288768,
        "meta_eccentricity": 0.02580174,
        "meta_inclination": 98.3681,
        "meta_ra_of_asc_node": 332.8934,
        "meta_arg_of_pericenter": 107.318,
        "meta_mean_anomaly": 320.7507,
        "meta_ephemeris_type": 0,
        "meta_classification_type": "U",
        "meta_norad_cat_id": 30038,
        "meta_element_set_no": 999,
        "meta_rev_at_epoch": 98869,
        "meta_bstar": 0.0003022091,
        "meta_mean_motion_dot": 1.336e-05,
        "meta_mean_motion_ddot": 0,
        "tle_line1": "1 30038U 99025NP  25345.23025645  .00001336  00000+0  30221-3 0  9998",
        "tle_line2": "2 30038  98.3681 332.8934 0258017 107.3180 320.7507 14.39288768988696"
      },
      "geometry": {
        "type": "Point",
        "coordinates": [
          -141.61230251028837,
          80.77110979715961
        ]
      }
    }
  ]
}